C/2019 A5 (PANSTARRS),e,67.5514,146.6014,355.7979,21.48611,0.0098962,0.70613097,14.1654,05/08.0/2023,2000,g  9.5,4.0
# From MPC114605
P/2019 A6 (Lemmon-PANSTARRS),e,33.2707,280.1913,156.1963,5.357634,0.0794776,0.63996495,136.0407,05/08.0/2023,2000,g 16.0,4.0
# From MPC115884
P/2019 A8 (PANSTARRS),e,2.1834,113.9680,65.8832,4.299777,0.1105440,0.23543677,196.0556,05/08.0/2023,2000,g 16.0,4.0
# From MPC118842
C/2019 A9 (PANSTARRS),e,84.2660,278.4128,237.9185,39.14128,0.0040249,0.96344885,5.5625,05/08.0/2023,2000,g 15.0,4.0
# From MPEC 2022-L66
C/2019 B1 (Africano),e,123.4165,290.3629,174.7694,137.6723,0.0006101,0.98839133,0.0000,03/18.5850/2019,2000,g 16.0,4.0
# From MPC115885
P/2019 B2 (Groeller),e,17.0065,175.7470,0.9893,3.915394,0.1272158,0.36006780,183.3449,05/08.0/2023,2000,g 14.5,4.0
# From MPEC 2023-HD1
C/2019 B3 (PANSTARRS),e,66.5391,358.4327,263.9673,50019,0.0000001,0.99986354,0.0000,01/20.3420/2021,2000,g  9.4,4.0
# From MPEC 2021-P47
C/2019 C1 (ATLAS),e,36.0508,212.3917,319.0721,646.3780,0.0000600,0.98982667,0.0000,05/04.2853/2020,2000,g 10.0,4.0
# From MPEC 2022-O08
C/2019 D1 (Flewelling),e,34.0083,231.6603,70.6874,142.2094,0.0005812,0.98884622,0.0000,05/11.1092/2019,2000,g 13.0,4.0
# From MPEC 2023-J29
C/2019 E3 (ATLAS),e,84.2973,347.2444,280.6861,26460,0.0000002,0.99961024,0.0000,11/14.9664/2023,2000,g  2.5,4.0
# From MPEC 2023-CD7
C/2019 F1 (ATLAS-Africano),h,06/22.9810/2021,54.2283,38.6671,251.2995,1.002983,3.602179,2000,5.5,4.0
# From MPEC 2021-P47
C/2019 F2 (ATLAS),e,19.2746,175.4501,11.6289,16.62335,0.0145421,0.86487840,19.4593,05/08.0/2023,2000,g 12.0,4.0
# From MPEC 2021-P47
A/2019 G2,e,159.2140,208.1604,82.6059,437.4117,0.0001077,0.99475564,0.0000,12/08.5062/2019,2000,g 16.5,2.0
# From MPEC 2022-VC5
A/2019 G3,e,156.8068,49.8961,161.9095,17.20363,0.0138126,0.83447470,22.3146,05/08.0/2023,2000,g 17.1,2.0
# From MPEC 2022-P82
C/2019 G4 (PANSTARRS),h,09/15.6993/2018,138.3507,130.4506,287.7605,1.001647,5.848283,2000,9.5,4.0
# From MPC114607
P/2019 GG21 (PANSTARRS),e,6.0863,340.5562,208.5986,7.468993,0.0482849,0.47186275,70.4446,05/08.0/2023,2000,g 12.0,4.0
# From MPEC 2022-M21
C/2019 H1 (NEOWISE),e,104.4531,269.2712,19.3366,246.7513,0.0002543,0.99252368,0.0000,04/27.9604/2019,2000,g 15.5,4.0
# From MPEC 2023-A50
C/2019 J1 (Lemmon),e,24.5400,98.1610,167.7389,68.36338,0.0017437,0.96365031,2.6003,05/08.0/2023,2000,g 12.0,4.0
# From MPEC 2021-R75
C/2019 J2 (Palomar),e,105.2335,25.5610,98.6884,161.9617,0.0004782,0.98937076,0.0000,07/20.3938/2019,2000,g 13.0,4.0
# From MPC117071
C/2019 J3 (ATLAS),h,08/02.4210/2019,131.3513,270.6052,16.6070,1.000628,2.370855,2000,13.5,4.0
# From MPEC 2022-M21
C/2019 JU6 (ATLAS),h,06/01.9158/2019,148.3314,21.7657,94.9941,1.000050,2.044105,2000,14.5,4.0
# From MPEC 2022-O08
C/2019 K1 (ATLAS),e,87.0540,73.3380,265.7246,11128,0.0000008,0.99981902,0.0000,02/12.6869/2020,2000,g 10.0,4.0
# From MPC119997
C/2019 K4 (Ye),e,105.2970,180.1514,139.8831,1381,0.0000192,0.99835790,0.0000,06/15.6050/2019,2000,g 12.5,4.0
# From MPEC 2021-P47
C/2019 K5 (Young),e,15.3179,177.1337,175.1409,168.2222,0.0004517,0.98785833,0.0000,06/22.9767/2019,2000,g 13.0,4.0
# From MPEC 2021-P47
C/2019 K6 (PANSTARRS),e,132.3813,42.9952,187.5853,1538,0.0000163,0.99744822,0.0000,05/19.9853/2020,2000,g 11.5,4.0
# From MPEC 2023-J29
C/2019 K7 (Smith),h,06/17.6087/2020,103.5313,307.9663,27.4029,1.000921,4.478303,2000,6.0,4.0
# From MPEC 2021-R75
C/2019 K8 (ATLAS),e,93.1398,291.0285,85.3799,2628,0.0000073,0.99878511,0.0000,07/21.7426/2019,2000,g 11.5,4.0
# From MPEC 2023-A50
C/2019 L1 (PANSTARRS),e,9.9797,254.4301,50.0521,9.840327,0.0319293,0.70535079,43.6284,05/08.0/2023,2000,g 13.5,4.0
# From MPC115886
C/2019 L2 (NEOWISE),e,152.2102,12.5487,18.8426,25.03272,0.0078694,0.93504365,11.7807,05/08.0/2023,2000,g 16.0,4.0
# From MPEC 2023-HD1
P/2019 LD2 (ATLAS),e,11.6198,179.5828,119.9437,5.219294,0.0826583,0.12659723,95.7504,05/08.0/2023,2000,g 12.0,4.0
# From MPEC 2023-J29
C/2019 L3 (ATLAS),h,01/09.6731/2022,48.3493,290.7759,171.6232,1.002128,3.554490,2000,4.5,4.0
# From MPC118095
C/2019 LB7 (Kleyna),e,164.2914,3.8894,336.5756,34.68531,0.0048249,0.92816914,7.2552,05/08.0/2023,2000,g 17.0,4.0
# From MPEC 2022-O08
P/2019 M2 (ATLAS),e,12.2706,307.6161,332.5503,3.028878,0.1869740,0.64740965,264.8035,05/08.0/2023,2000,g 21.2,4.0
# From MPC118095
C/2019 M3 (ATLAS),e,99.5166,154.9321,87.8951,6816,0.0000018,0.99964462,0.0000,12/31.9312/2018,2000,g 12.2,4.0
# From MPEC 2023-C45
C/2019 N1 (ATLAS),e,82.4320,13.5717,193.4170,1642,0.0000148,0.99896116,0.0000,12/01.3069/2020,2000,g  7.5,4.0
# From MPEC 2023-CD8
A/2019 N2,e,89.3860,276.1234,347.1940,1631,0.0000150,0.99880591,0.0000,08/22.7564/2019,2000,g 12.5,2.0
# From MPEC 2022-A21
C/2019 NJ3 (Lemmon),h,10/22.9344/2020,99.4174,142.4704,246.9111,1.002483,4.362784,2000,9.0,4.0
# From MPEC 2023-J29
A/2019 O2,e,93.3078,48.2622,129.6373,57.92478,0.0022357,0.83283854,0.0689,05/08.0/2023,2000,g  9.5,2.0
# From MPEC 2023-J29
C/2019 O3 (Palomar),h,03/09.5802/2021,89.8185,300.4213,60.1285,1.004365,8.821005,2000,3.5,4.0
# From MPEC 2021-P47
A/2019 O4,e,115.0885,354.9098,61.9038,33.29049,0.0051313,0.89047638,6.0658,05/08.0/2023,2000,g 15.5,2.0
# From MPEC 2023-A50
C/2019 Q1 (Lemmon),h,07/20.7414/2020,155.7294,42.4601,56.1960,1.000785,5.002943,2000,8.5,4.0
# From MPC117072
A/2019 Q2,e,159.0288,188.0117,176.3942,57.88985,0.0022377,0.97818518,0.0000,07/22.1209/2019,2000,g 18.0,2.0
# From MPC117072
C/2019 Q3 (PANSTARRS),h,08/21.3373/2018,65.5398,151.3410,152.7952,1.002530,7.266409,2000,8.5,4.0
# From MPC117072
P/2019 S2 (PANSTARRS),e,10.4658,93.1389,217.1569,4.742880,0.0954203,0.20567543,146.5831,05/08.0/2023,2000,g 13.5,4.0
# From MPEC 2022-CN4
P/2019 S3 (PANSTARRS),e,8.6928,150.1506,213.0573,3.415400,0.1561499,0.47117377,210.7689,05/08.0/2023,2000,g 18.3,4.0
# From MPEC 2021-S45
C/2019 S4 (Lemmon),e,92.0819,63.1486,71.3772,234.6273,0.0002742,0.98532812,0.0000,04/08.0786/2020,2000,g 11.0,4.0
# From MPEC 2023-G31
A/2019 T1,e,120.8753,6.9449,91.0715,38.75315,0.0040855,0.88952040,3.4448,05/08.0/2023,2000,g 13.0,2.0
# From MPEC 2023-J29
C/2019 T2 (Lemmon),e,111.4729,155.6503,239.4309,4108,0.0000037,0.99935585,0.0000,04/22.5337/2021,2000,g  9.0,4.0
# From MPEC 2022-WQ9
C/2019 T3 (ATLAS),e,121.8442,139.5320,112.4512,3465,0.0000048,0.99828206,0.0000,03/04.2848/2021,2000,g  6.8,4.0
# From MPEC 2023-J29
C/2019 T4 (ATLAS),e,53.6319,199.9390,351.1699,956.2264,0.0000333,0.99556388,0.0000,06/08.9436/2022,2000,g  5.0,4.0
# From MPEC 2021-P47
P/2019 T5 (ATLAS),e,33.4897,247.6246,189.5673,7.997558,0.0435781,0.80954323,59.9264,05/08.0/2023,2000,g 15.0,4.0
# From MPEC 2021-P47
P/2019 T6 (PANSTARRS),e,18.7023,71.2214,329.0013,5.437886,0.0777247,0.62305748,99.2091,05/08.0/2023,2000,g 15.5,4.0
# From MPC118096
P/2019 U4 (PANSTARRS),e,11.7005,200.0007,181.0304,3.520198,0.1492291,0.47600808,197.9414,05/08.0/2023,2000,g 19.0,4.0
# From MPEC 2023-J29
C/2019 U5 (PANSTARRS),h,03/29.8330/2023,113.5195,2.6373,181.4934,1.001437,3.624198,2000,4.5,4.0
# From MPEC 2022-H04
C/2019 U6 (Lemmon),e,60.9779,235.7617,329.5719,339.2498,0.0001577,0.99730794,0.0000,06/18.4239/2020,2000,g 10.0,4.0
# From MPEC 2022-N37
C/2019 V1 (Borisov),e,61.9076,83.1672,51.1627,1531,0.0000165,0.99797828,0.0000,07/16.4355/2020,2000,g 11.0,4.0
# From MPEC 2022-L66
P/2019 V2 (Groeller),e,11.8082,189.1846,335.7545,7.499663,0.0479890,0.33113178,44.7533,05/08.0/2023,2000,g 10.0,4.0
# From MPEC 2023-A50
P/2019 W1 (PANSTARRS),e,23.4750,35.3767,18.7278,4.549200,0.1015785,0.26709964,148.2926,05/08.0/2023,2000,g 12.9,4.0
# From MPEC 2021-P47
P/2019 X1 (Pruyne),e,10.2502,43.6646,36.8081,6.174263,0.0642431,0.30365359,89.0346,05/08.0/2023,2000,g 10.4,4.0
# From MPC119999
C/2019 Y1 (ATLAS),e,73.3565,31.5559,57.9131,86.52374,0.0012246,0.99041874,0.0000,03/16.0318/2020,2000,g 13.7,4.0
# From MPEC 2022-YN2
C/2019 Y4 (ATLAS),e,45.2248,120.6566,177.4529,353.9797,0.0001480,0.99927933,0.0000,05/30.8789/2020,2000,g 11.8,6.0
# From MPEC 2020-L06
C/2019 Y4-A (ATLAS),h,05/30.9062/2020,45.6677,121.0180,177.2866,1.001419,0.253254,2000,11.6,6.0
# From MPEC 2023-J29
C/2019 Y4-B (ATLAS),h,05/30.8841/2020,45.3557,120.7626,177.3969,1.000021,0.254568,2000,12.1,6.0
# From MPEC 2020-L06
C/2019 Y4-C (ATLAS),h,05/30.8607/2020,45.4500,120.7445,177.3200,1.002143,0.254322,2000,12.7,6.0
# From MPEC 2020-L06
C/2019 Y4-D (ATLAS),e,45.4946,121.1190,177.4580,68.43180,0.0017411,0.99629330,0.0000,05/30.9847/2020,2000,g 12.5,6.0
# From MPEC 2023-A50
C/2019 Y5 (PANSTARRS),e,82.7694,51.7574,303.5607,756.1590,0.0000474,0.99349358,0.0000,08/17.9454/2019,2000,g 11.0,4.0
# From MPEC 2023-A50
A/2020 A1,e,149.0374,119.2054,302.5141,25.65949,0.0075828,0.93504640,9.4989,05/08.0/2023,2000,g 18.0,2.0
# From MPEC 2022-YN2
C/2020 A2 (NEOWISE),e,120.6348,286.3033,68.0956,1425,0.0000183,0.99931612,0.0000,01/08.5203/2020,2000,g 13.5,4.0
# From MPEC 2023-A50
C/2020 A3 (ATLAS),h,06/29.1409/2019,146.6700,120.8043,268.3751,1.000885,5.760549,2000,8.0,4.0
# From MPEC 2022-P91
P/2020 A4 (PANSTARRS-Lemmon),e,24.9907,312.3781,144.7708,8.194106,0.0420196,0.65398007,53.0312,05/08.0/2023,2000,g 15.0,4.0
# From MPEC 2020-N08
A/2020 B1,e,18.5193,309.9524,154.7266,51.41287,0.0026736,0.96613639,3.2850,05/08.0/2023,2000,g 21.0,2.0
# From MPEC 2022-N37
C/2020 B3 (Rankin),e,20.7096,185.8466,324.9145,949.4281,0.0000337,0.99648559,0.0000,10/19.4449/2019,2000,g 13.0,4.0
# From MPEC 2022-H04
P/2020 B4 (Sheppard),e,11.6092,185.9790,342.0814,7.966956,0.0438294,0.19183060,23.4297,05/08.0/2023,2000,g 10.5,4.0
# From MPEC 2023-J29
C/2020 F2 (ATLAS),h,07/14.9221/2022,163.5882,250.2890,48.3292,1.005368,8.816658,2000,4.5,4.0
# From MPEC 2021-O56
C/2020 F3 (NEOWISE),e,129.1116,61.0752,37.3620,358.3932,0.0001453,0.99917491,0.0000,07/03.7297/2020,2000,g  7.5,5.2
# From MPEC 2023-C45
C/2020 F5 (MASTER),e,52.2079,350.5016,310.6795,178.0218,0.0004149,0.97570867,0.0000,03/17.5960/2021,2000,g  6.5,3.2
# From MPEC 2020-L06
C/2020 F6 (PANSTARRS),e,174.5830,207.9076,344.5517,401.1867,0.0001227,0.99126185,0.0000,04/11.7028/2020,2000,g 14.5,2.8
